IRIDIUM 63              
1 25286U 98021B   25161.49258803  .00000298  00000+0  94809-4 0  9999
2 25286  86.3976  84.9409 0002104  81.9384 278.2051 14.36541891422889
IRIDIUM 69              
1 25319U 98026A   25161.52575823  .00000383  00000+0  11303-3 0  9991
2 25319  86.3969  98.2381 0004383  65.2426 294.9229 14.40962841422102
IRIDIUM 71              
1 25320U 98026B   25161.53346387  .00000266  00000+0  76476-4 0  9998
2 25320  86.3967  92.9261 0004321  96.4115 263.7577 14.41153080422639
IRIDIUM 73              
1 25344U 98032C   25161.23795710  .00000433  00000+0  10283-3 0  9995
2 25344  86.4419  49.7689 0002580  71.7408 288.4078 14.51709408429558
IRIDIUM 82              
1 25467U 98051A   25161.36591480  .00019061  00000+0  55071-3 0  9995
2 25467  86.3666 113.0916 0083079 324.4728  35.1004 15.32056467422919
